STARLINK-34720          
1 66449U 25259AD  25324.75002315 -.01715797  00000+0 -74759-2 0  9993
2 66449  42.9980 177.8395 0001715 274.6089 159.1556 15.86765505  2634
STARLINK-35334          
1 66450U 25259AE  25324.75002315 -.01725710  00000+0 -75249-2 0  9996
2 66450  42.9978 177.8331 0001652 274.2046 161.9847 15.86769320  2747
VIASAT-3 F2             
1 66454U 25261A   25323.76034443 -.00000070  00000+0  00000+0 0  9993
2 66454   5.6100 294.5970 2345971 181.3235 350.4391  2.28672141   120
ATLAS 5 CENTAUR R/B     
1 66455U 25261B   25322.70776647 -.00000072  00000+0  00000+0 0  9998
2 66455   6.1777 294.0142 2330054 181.6454 197.2445  2.28238009   101
SENTINEL-6B             
1 66514U 25264A   25324.69164015  .00001042  00000+0  44727-2 0  9991
2 66514  66.0404 208.5605 0011521 270.2535  89.7163 12.85877137   456
SZ-21 DEB               
1 66515U 25246C   25324.66875876  .00024769  00000+0  28923-3 0  9995
2 66515  41.4744 150.5325 0004560 103.8816 256.2531 15.61024757   992
SHIJIAN-30A             
1 66545U 25266A   25324.66518512  .00009582  00000+0  51285-3 0  9994
2 66545  51.7993  76.2571 0012752 277.6978  82.2551 15.15598233   233
SHIJIAN-30B             
1 66546U 25266B   25324.66543536  .00010199  00000+0  54887-3 0  9996
2 66546  51.7976  76.2593 0010469 277.2571  82.7215 15.15354245   232
SHIJIAN-30C             
1 66547U 25266C   25324.66566211  .00008220  00000+0  44855-3 0  9998
2 66547  51.7987  76.2604 0011318 269.8707  90.0972 15.15115584   233
CZ-2C R/B               
1 66548U 25266D   25324.78286605  .00013333  00000+0  42319-3 0  9992
2 66548  52.0556  75.8305 0085495  98.3506 262.7184 15.29489618   254
