CCSDS_OMM_VERS = 2.0
CREATION_DATE  = 
ORIGINATOR     = 

OBJECT_NAME    = STARLINK-34720
OBJECT_ID      = 2025-259AD
CENTER_NAME    = EARTH
REF_FRAME      = TEME
TIME_SYSTEM    = UTC
MEAN_ELEMENT_THEORY = SGP/SGP4

EPOCH          = 2025-11-20T18:00:02.000160
MEAN_MOTION    = 15.86765505
ECCENTRICITY   = .0001715
INCLINATION    = 42.9980
RA_OF_ASC_NODE = 177.8395
ARG_OF_PERICENTER = 274.6089
MEAN_ANOMALY   = 159.1556

EPHEMERIS_TYPE = 0
CLASSIFICATION_TYPE = U
NORAD_CAT_ID   = 66449
ELEMENT_SET_NO = 999
REV_AT_EPOCH   = 263
BSTAR          = -.74759E-2
MEAN_MOTION_DOT = -.1715797E-1
MEAN_MOTION_DDOT = 0

CCSDS_OMM_VERS = 2.0
CREATION_DATE  = 
ORIGINATOR     = 

OBJECT_NAME    = STARLINK-35334
OBJECT_ID      = 2025-259AE
CENTER_NAME    = EARTH
REF_FRAME      = TEME
TIME_SYSTEM    = UTC
MEAN_ELEMENT_THEORY = SGP/SGP4

EPOCH          = 2025-11-20T18:00:02.000160
MEAN_MOTION    = 15.86769320
ECCENTRICITY   = .0001652
INCLINATION    = 42.9978
RA_OF_ASC_NODE = 177.8331
ARG_OF_PERICENTER = 274.2046
MEAN_ANOMALY   = 161.9847

EPHEMERIS_TYPE = 0
CLASSIFICATION_TYPE = U
NORAD_CAT_ID   = 66450
ELEMENT_SET_NO = 999
REV_AT_EPOCH   = 274
BSTAR          = -.75249E-2
MEAN_MOTION_DOT = -.172571E-1
MEAN_MOTION_DDOT = 0

CCSDS_OMM_VERS = 2.0
CREATION_DATE  = 
ORIGINATOR     = 

OBJECT_NAME    = VIASAT-3 F2
OBJECT_ID      = 2025-261A
CENTER_NAME    = EARTH
REF_FRAME      = TEME
TIME_SYSTEM    = UTC
MEAN_ELEMENT_THEORY = SGP/SGP4

EPOCH          = 2025-11-19T18:14:53.758752
MEAN_MOTION    = 2.28672141
ECCENTRICITY   = .23459717
INCLINATION    = 5.6100
RA_OF_ASC_NODE = 294.5970
ARG_OF_PERICENTER = 181.3235
MEAN_ANOMALY   = 350.4391

EPHEMERIS_TYPE = 0
CLASSIFICATION_TYPE = U
NORAD_CAT_ID   = 66454
ELEMENT_SET_NO = 999
REV_AT_EPOCH   = 12
BSTAR          = 0
MEAN_MOTION_DOT = -.7E-6
MEAN_MOTION_DDOT = 0

CCSDS_OMM_VERS = 2.0
CREATION_DATE  = 
ORIGINATOR     = 

OBJECT_NAME    = ATLAS 5 CENTAUR R/B
OBJECT_ID      = 2025-261B
CENTER_NAME    = EARTH
REF_FRAME      = TEME
TIME_SYSTEM    = UTC
MEAN_ELEMENT_THEORY = SGP/SGP4

EPOCH          = 2025-11-18T16:59:11.023008
MEAN_MOTION    = 2.28238009
ECCENTRICITY   = .23300545
INCLINATION    = 6.1777
RA_OF_ASC_NODE = 294.0142
ARG_OF_PERICENTER = 181.6454
MEAN_ANOMALY   = 197.2445

EPHEMERIS_TYPE = 0
CLASSIFICATION_TYPE = U
NORAD_CAT_ID   = 66455
ELEMENT_SET_NO = 999
REV_AT_EPOCH   = 10
BSTAR          = 0
MEAN_MOTION_DOT = -.72E-6
MEAN_MOTION_DDOT = 0

CCSDS_OMM_VERS = 2.0
CREATION_DATE  = 
ORIGINATOR     = 

OBJECT_NAME    = SENTINEL-6B
OBJECT_ID      = 2025-264A
CENTER_NAME    = EARTH
REF_FRAME      = TEME
TIME_SYSTEM    = UTC
MEAN_ELEMENT_THEORY = SGP/SGP4

EPOCH          = 2025-11-20T16:35:57.708960
MEAN_MOTION    = 12.85877137
ECCENTRICITY   = .0011521
INCLINATION    = 66.0404
RA_OF_ASC_NODE = 208.5605
ARG_OF_PERICENTER = 270.2535
MEAN_ANOMALY   = 89.7163

EPHEMERIS_TYPE = 0
CLASSIFICATION_TYPE = U
NORAD_CAT_ID   = 66514
ELEMENT_SET_NO = 999
REV_AT_EPOCH   = 45
BSTAR          = .44727E-2
MEAN_MOTION_DOT = .1042E-4
MEAN_MOTION_DDOT = 0

CCSDS_OMM_VERS = 2.0
CREATION_DATE  = 
ORIGINATOR     = 

OBJECT_NAME    = SZ-21 DEB
OBJECT_ID      = 2025-246C
CENTER_NAME    = EARTH
REF_FRAME      = TEME
TIME_SYSTEM    = UTC
MEAN_ELEMENT_THEORY = SGP/SGP4

EPOCH          = 2025-11-20T16:03:00.756864
MEAN_MOTION    = 15.61024757
ECCENTRICITY   = .000456
INCLINATION    = 41.4744
RA_OF_ASC_NODE = 150.5325
ARG_OF_PERICENTER = 103.8816
MEAN_ANOMALY   = 256.2531

EPHEMERIS_TYPE = 0
CLASSIFICATION_TYPE = U
NORAD_CAT_ID   = 66515
ELEMENT_SET_NO = 999
REV_AT_EPOCH   = 99
BSTAR          = .28923E-3
MEAN_MOTION_DOT = .24769E-3
MEAN_MOTION_DDOT = 0

CCSDS_OMM_VERS = 2.0
CREATION_DATE  = 
ORIGINATOR     = 

OBJECT_NAME    = SHIJIAN-30A
OBJECT_ID      = 2025-266A
CENTER_NAME    = EARTH
REF_FRAME      = TEME
TIME_SYSTEM    = UTC
MEAN_ELEMENT_THEORY = SGP/SGP4

EPOCH          = 2025-11-20T15:57:51.994368
MEAN_MOTION    = 15.15598233
ECCENTRICITY   = .0012752
INCLINATION    = 51.7993
RA_OF_ASC_NODE = 76.2571
ARG_OF_PERICENTER = 277.6978
MEAN_ANOMALY   = 82.2551

EPHEMERIS_TYPE = 0
CLASSIFICATION_TYPE = U
NORAD_CAT_ID   = 66545
ELEMENT_SET_NO = 999
REV_AT_EPOCH   = 23
BSTAR          = .51285E-3
MEAN_MOTION_DOT = .9582E-4
MEAN_MOTION_DDOT = 0

CCSDS_OMM_VERS = 2.0
CREATION_DATE  = 
ORIGINATOR     = 

OBJECT_NAME    = SHIJIAN-30B
OBJECT_ID      = 2025-266B
CENTER_NAME    = EARTH
REF_FRAME      = TEME
TIME_SYSTEM    = UTC
MEAN_ELEMENT_THEORY = SGP/SGP4

EPOCH          = 2025-11-20T15:58:13.615104
MEAN_MOTION    = 15.15354245
ECCENTRICITY   = .0010469
INCLINATION    = 51.7976
RA_OF_ASC_NODE = 76.2593
ARG_OF_PERICENTER = 277.2571
MEAN_ANOMALY   = 82.7215

EPHEMERIS_TYPE = 0
CLASSIFICATION_TYPE = U
NORAD_CAT_ID   = 66546
ELEMENT_SET_NO = 999
REV_AT_EPOCH   = 23
BSTAR          = .54887E-3
MEAN_MOTION_DOT = .10199E-3
MEAN_MOTION_DDOT = 0

CCSDS_OMM_VERS = 2.0
CREATION_DATE  = 
ORIGINATOR     = 

OBJECT_NAME    = SHIJIAN-30C
OBJECT_ID      = 2025-266C
CENTER_NAME    = EARTH
REF_FRAME      = TEME
TIME_SYSTEM    = UTC
MEAN_ELEMENT_THEORY = SGP/SGP4

EPOCH          = 2025-11-20T15:58:33.206304
MEAN_MOTION    = 15.15115584
ECCENTRICITY   = .0011318
INCLINATION    = 51.7987
RA_OF_ASC_NODE = 76.2604
ARG_OF_PERICENTER = 269.8707
MEAN_ANOMALY   = 90.0972

EPHEMERIS_TYPE = 0
CLASSIFICATION_TYPE = U
NORAD_CAT_ID   = 66547
ELEMENT_SET_NO = 999
REV_AT_EPOCH   = 23
BSTAR          = .44855E-3
MEAN_MOTION_DOT = .822E-4
MEAN_MOTION_DDOT = 0

CCSDS_OMM_VERS = 2.0
CREATION_DATE  = 
ORIGINATOR     = 

OBJECT_NAME    = CZ-2C R/B
OBJECT_ID      = 2025-266D
CENTER_NAME    = EARTH
REF_FRAME      = TEME
TIME_SYSTEM    = UTC
MEAN_ELEMENT_THEORY = SGP/SGP4

EPOCH          = 2025-11-20T18:47:19.626720
MEAN_MOTION    = 15.29489618
ECCENTRICITY   = .0085495
INCLINATION    = 52.0556
RA_OF_ASC_NODE = 75.8305
ARG_OF_PERICENTER = 98.3506
MEAN_ANOMALY   = 262.7184

EPHEMERIS_TYPE = 0
CLASSIFICATION_TYPE = U
NORAD_CAT_ID   = 66548
ELEMENT_SET_NO = 999
REV_AT_EPOCH   = 25
BSTAR          = .42319E-3
MEAN_MOTION_DOT = .13333E-3
MEAN_MOTION_DDOT = 0

